NOAA 18                 
1 28654U 05018A   26067.62172898  .00000095  00000+0  73288-4 0  9998
2 28654  98.8157 148.7440 0015303  78.3099 281.9790 14.13710689 72107
NOAA 19                 
1 33591U 09005A   26067.60272705  .00000084  00000+0  68815-4 0  9998
2 33591  98.9608 138.3720 0012926 318.0021  42.0159 14.13456601880279
SUOMI NPP               
1 37849U 11061A   26067.61547956  .00000135  00000+0  85040-4 0  9993
2 37849  98.7868   9.2267 0000427 238.5446 121.5688 14.19543234744170
NOAA 20 (JPSS-1)        
1 43013U 17073A   26067.55966175  .00000127  00000+0  81212-4 0  9991
2 43013  98.7690   7.9581 0001172 139.5575 220.5689 14.19535781430191
