[{"OBJECT_NAME":"NOAA 18","OBJECT_ID":"2005-018A","EPOCH":"2026-03-08T14:55:17.383872","MEAN_MOTION":14.13710689,"ECCENTRICITY":0.00153037,"INCLINATION":98.8157,"RA_OF_ASC_NODE":148.744,"ARG_OF_PERICENTER":78.3099,"MEAN_ANOMALY":281.979,"EPHEMERIS_TYPE":0,"CLASSIFICATION_TYPE":"U","NORAD_CAT_ID":28654,"ELEMENT_SET_NO":999,"REV_AT_EPOCH":7210,"BSTAR":7.3287933e-5,"MEAN_MOTION_DOT":9.5e-7,"MEAN_MOTION_DDOT":0},{"OBJECT_NAME":"NOAA 19","OBJECT_ID":"2009-005A","EPOCH":"2026-03-08T14:27:55.617120","MEAN_MOTION":14.13456601,"ECCENTRICITY":0.00129266,"INCLINATION":98.9608,"RA_OF_ASC_NODE":138.372,"ARG_OF_PERICENTER":318.0021,"MEAN_ANOMALY":42.0159,"EPHEMERIS_TYPE":0,"CLASSIFICATION_TYPE":"U","NORAD_CAT_ID":33591,"ELEMENT_SET_NO":999,"REV_AT_EPOCH":88027,"BSTAR":6.8815405e-5,"MEAN_MOTION_DOT":8.4e-7,"MEAN_MOTION_DDOT":0},{"OBJECT_NAME":"SUOMI NPP","OBJECT_ID":"2011-061A","EPOCH":"2026-03-08T14:46:17.433984","MEAN_MOTION":14.19543234,"ECCENTRICITY":4.276e-5,"INCLINATION":98.7868,"RA_OF_ASC_NODE":9.2267,"ARG_OF_PERICENTER":238.5446,"MEAN_ANOMALY":121.5688,"EPHEMERIS_TYPE":0,"CLASSIFICATION_TYPE":"U","NORAD_CAT_ID":37849,"ELEMENT_SET_NO":999,"REV_AT_EPOCH":74417,"BSTAR":8.5040294e-5,"MEAN_MOTION_DOT":1.35e-6,"MEAN_MOTION_DDOT":0},{"OBJECT_NAME":"NOAA 20 (JPSS-1)","OBJECT_ID":"2017-073A","EPOCH":"2026-03-08T13:25:54.775200","MEAN_MOTION":14.19535781,"ECCENTRICITY":0.00011721,"INCLINATION":98.769,"RA_OF_ASC_NODE":7.9581,"ARG_OF_PERICENTER":139.5575,"MEAN_ANOMALY":220.5689,"EPHEMERIS_TYPE":0,"CLASSIFICATION_TYPE":"U","NORAD_CAT_ID":43013,"ELEMENT_SET_NO":999,"REV_AT_EPOCH":43019,"BSTAR":8.1212212e-5,"MEAN_MOTION_DOT":1.27e-6,"MEAN_MOTION_DDOT":0}]
